start=new Date('2022-04-20T00:00:00.000Z').valueOf();
sats=[{"LAUNCH_DATE":"2021-04-29","MEAN_MOTION_DDOT":"0.0000000000000","MEAN_MOTION_DOT":"0.00005208","MEAN_ELEMENT_THEORY":"SGP4","PERIOD":"95.591","ECCENTRICITY":"0.00013440","TLE_LINE2":"2 48289  53.0543 335.6578 0001344  78.1154 281.9985 15.06412465 54889","ELEMENT_SET_NO":"999","NORAD_CAT_ID":"48289","RCS_SIZE":"LARGE","SITE":"AFETR","FILE":"3408386","EPHEMERIS_TYPE":"0","INCLINATION":"53.0543","GP_ID":"201631150","REV_AT_EPOCH":"5488","REF_FRAME":"TEME","OBJECT_TYPE":"PAYLOAD","TLE_LINE1":"1 48289U 21036P   22109.81892865  .00005208  00000-0  36816-3 0  9996","RA_OF_ASC_NODE":"335.6578","OBJECT_NAME":"STARLINK-2545","ARG_OF_PERICENTER":"78.1154","EPOCH":"2022-04-19T19:39:15.435360","BSTAR":"0.00036816000000","TIME_SYSTEM":"UTC","APOAPSIS":"548.106","CENTER_NAME":"EARTH","OBJECT_ID":"2021-036P","SEMIMAJOR_AXIS":"6925.310","COUNTRY_CODE":"US","DECAY_DATE":null,"CLASSIFICATION_TYPE":"U","PERIAPSIS":"546.245","MEAN_ANOMALY":"281.9985","MEAN_MOTION":"15.06412465"},{"MEAN_ANOMALY":"297.0441","MEAN_MOTION":"15.06412047","PERIAPSIS":"546.084","CLASSIFICATION_TYPE":"U","COUNTRY_CODE":"US","SEMIMAJOR_AXIS":"6925.312","DECAY_DATE":null,"TIME_SYSTEM":"UTC","APOAPSIS":"548.269","OBJECT_ID":"2021-036Q","CENTER_NAME":"EARTH","BSTAR":"0.00092856000000","EPOCH":"2022-04-19T21:09:29.805408","ARG_OF_PERICENTER":"63.0709","REF_FRAME":"TEME","OBJECT_NAME":"STARLINK-2540","TLE_LINE1":"1 48290U 21036Q   22109.88159497  .00013581  00000-0  92856-3 0  9991","OBJECT_TYPE":"PAYLOAD","RA_OF_ASC_NODE":"335.4001","REV_AT_EPOCH":"5489","GP_ID":"201631509","INCLINATION":"53.0527","RCS_SIZE":"LARGE","EPHEMERIS_TYPE":"0","FILE":"3408387","SITE":"AFETR","ECCENTRICITY":"0.00015780","TLE_LINE2":"2 48290  53.0527 335.4001 0001578  63.0709 297.0441 15.06412047 54892","ELEMENT_SET_NO":"999","NORAD_CAT_ID":"48290","MEAN_ELEMENT_THEORY":"SGP4","PERIOD":"95.591","MEAN_MOTION_DOT":"0.00013581","MEAN_MOTION_DDOT":"0.0000000000000","LAUNCH_DATE":"2021-04-29"},{"MEAN_MOTION":"15.06414359","MEAN_ANOMALY":"307.2862","PERIAPSIS":"546.019","CLASSIFICATION_TYPE":"U","DECAY_DATE":null,"SEMIMAJOR_AXIS":"6925.305","COUNTRY_CODE":"US","CENTER_NAME":"EARTH","OBJECT_ID":"2021-036R","APOAPSIS":"548.320","TIME_SYSTEM":"UTC","EPOCH":"2022-04-19T21:04:10.861536","BSTAR":"0.00040175000000","ARG_OF_PERICENTER":"52.8279","RA_OF_ASC_NODE":"335.4114","TLE_LINE1":"1 48291U 21036R   22109.87790349  .00005710  00000-0  40175-3 0  9990","OBJECT_TYPE":"PAYLOAD","OBJECT_NAME":"STARLINK-2555","REF_FRAME":"TEME","REV_AT_EPOCH":"5489","INCLINATION":"53.0533","GP_ID":"201639383","FILE":"3408729","EPHEMERIS_TYPE":"0","SITE":"AFETR","RCS_SIZE":"LARGE","NORAD_CAT_ID":"48291","TLE_LINE2":"2 48291  53.0533 335.4114 0001661  52.8279 307.2862 15.06414359 54895","ELEMENT_SET_NO":"999","ECCENTRICITY":"0.00016610","PERIOD":"95.591","MEAN_ELEMENT_THEORY":"SGP4","MEAN_MOTION_DOT":"0.00005710","LAUNCH_DATE":"2021-04-29","MEAN_MOTION_DDOT":"0.0000000000000"},{"INCLINATION":"53.0554","GP_ID":"201639198","REV_AT_EPOCH":"5489","ECCENTRICITY":"0.00014080","ELEMENT_SET_NO":"999","TLE_LINE2":"2 48292  53.0554 335.4320 0001408  68.4530 291.6608 15.06425394 54895","NORAD_CAT_ID":"48292","RCS_SIZE":"LARGE","EPHEMERIS_TYPE":"0","FILE":"3408738","SITE":"AFETR","MEAN_MOTION_DOT":"0.00007809","MEAN_ELEMENT_THEORY":"SGP4","PERIOD":"95.591","MEAN_MOTION_DDOT":"0.0000000000000","LAUNCH_DATE":"2021-04-29","PERIAPSIS":"546.161","MEAN_ANOMALY":"291.6608","MEAN_MOTION":"15.06425394","COUNTRY_CODE":"US","SEMIMAJOR_AXIS":"6925.271","DECAY_DATE":null,"CLASSIFICATION_TYPE":"U","BSTAR":"0.00054221000000","EPOCH":"2022-04-19T20:57:30.910752","APOAPSIS":"548.111","TIME_SYSTEM":"UTC","OBJECT_ID":"2021-036S","CENTER_NAME":"EARTH","REF_FRAME":"TEME","OBJECT_NAME":"STARLINK-2542","TLE_LINE1":"1 48292U 21036S   22109.87327443  .00007809  00000-0  54221-3 0  9990","RA_OF_ASC_NODE":"335.4320","OBJECT_TYPE":"PAYLOAD","ARG_OF_PERICENTER":"68.4530"},{"RCS_SIZE":"LARGE","SITE":"AFETR","FILE":"3408391","EPHEMERIS_TYPE":"0","ECCENTRICITY":"0.00015950","TLE_LINE2":"2 48293  53.0572 335.4395 0001595  69.0570 291.0590 15.06384804 54890","NORAD_CAT_ID":"48293","ELEMENT_SET_NO":"999","REV_AT_EPOCH":"5489","INCLINATION":"53.0572","GP_ID":"201631223","MEAN_MOTION_DDOT":"0.0000000000000","LAUNCH_DATE":"2021-04-29","MEAN_ELEMENT_THEORY":"SGP4","PERIOD":"95.593","MEAN_MOTION_DOT":"0.00000738","CLASSIFICATION_TYPE":"U","COUNTRY_CODE":"US","SEMIMAJOR_AXIS":"6925.395","DECAY_DATE":null,"MEAN_ANOMALY":"291.0590","MEAN_MOTION":"15.06384804","PERIAPSIS":"546.156","ARG_OF_PERICENTER":"69.0570","REF_FRAME":"TEME","OBJECT_NAME":"STARLINK-2550","TLE_LINE1":"1 48293U 21036T   22109.87055548  .00000738  00000-0  68493-4 0  9996","OBJECT_TYPE":"PAYLOAD","RA_OF_ASC_NODE":"335.4395","TIME_SYSTEM":"UTC","APOAPSIS":"548.365","OBJECT_ID":"2021-036T","CENTER_NAME":"EARTH","BSTAR":"0.00006849300000","EPOCH":"2022-04-19T20:53:35.993472"},{"REV_AT_EPOCH":"5423","GP_ID":"201626437","INCLINATION":"53.0550","RCS_SIZE":"LARGE","EPHEMERIS_TYPE":"0","FILE":"3408368","SITE":"AFETR","ECCENTRICITY":"0.00016470","NORAD_CAT_ID":"48294","TLE_LINE2":"2 48294  53.0550 337.8412 0001647  67.9476 292.1688 15.06398308 54235","ELEMENT_SET_NO":"999","MEAN_ELEMENT_THEORY":"SGP4","PERIOD":"95.592","MEAN_MOTION_DOT":"0.00003591","MEAN_MOTION_DDOT":"0.0000000000000","LAUNCH_DATE":"2021-04-29","MEAN_ANOMALY":"292.1688","MEAN_MOTION":"15.06398308","PERIAPSIS":"546.078","CLASSIFICATION_TYPE":"U","COUNTRY_CODE":"US","SEMIMAJOR_AXIS":"6925.354","DECAY_DATE":null,"TIME_SYSTEM":"UTC","APOAPSIS":"548.359","OBJECT_ID":"2021-036U","CENTER_NAME":"EARTH","BSTAR":"0.00025989000000","EPOCH":"2022-04-19T08:03:57.489120","ARG_OF_PERICENTER":"67.9476","REF_FRAME":"TEME","OBJECT_NAME":"STARLINK-2533","OBJECT_TYPE":"PAYLOAD","TLE_LINE1":"1 48294U 21036U   22109.33608205  .00003591  00000-0  25989-3 0  9994","RA_OF_ASC_NODE":"337.8412"},{"SITE":"AFETR","FILE":"3408384","EPHEMERIS_TYPE":"0","RCS_SIZE":"LARGE","TLE_LINE2":"2 48295  53.0568 335.4599 0001467  75.4018 284.7134 15.06408214 54894","ELEMENT_SET_NO":"999","NORAD_CAT_ID":"48295","ECCENTRICITY":"0.00014670","REV_AT_EPOCH":"5489","GP_ID":"201631450","INCLINATION":"53.0568","LAUNCH_DATE":"2021-04-29","MEAN_MOTION_DDOT":"0.0000000000000","PERIOD":"95.592","MEAN_ELEMENT_THEORY":"SGP4","MEAN_MOTION_DOT":"0.00002605","CLASSIFICATION_TYPE":"U","DECAY_DATE":null,"SEMIMAJOR_AXIS":"6925.323","COUNTRY_CODE":"US","MEAN_MOTION":"15.06408214","MEAN_ANOMALY":"284.7134","PERIAPSIS":"546.172","ARG_OF_PERICENTER":"75.4018","TLE_LINE1":"1 48295U 21036V   22109.86316930  .00002605  00000-0  19364-3 0  9999","OBJECT_TYPE":"PAYLOAD","RA_OF_ASC_NODE":"335.4599","OBJECT_NAME":"STARLINK-2535","REF_FRAME":"TEME","CENTER_NAME":"EARTH","OBJECT_ID":"2021-036V","TIME_SYSTEM":"UTC","APOAPSIS":"548.204","EPOCH":"2022-04-19T20:42:57.827520","BSTAR":"0.00019364000000"},{"ECCENTRICITY":"0.00013640","TLE_LINE2":"2 48296  53.0543 335.4877 0001364  76.0234 284.0906 15.06411629 54894","ELEMENT_SET_NO":"999","NORAD_CAT_ID":"48296","RCS_SIZE":"LARGE","EPHEMERIS_TYPE":"0","FILE":"3408414","SITE":"AFETR","INCLINATION":"53.0543","GP_ID":"201631811","REV_AT_EPOCH":"5489","LAUNCH_DATE":"2021-04-29","MEAN_MOTION_DDOT":"0.0000000000000","MEAN_MOTION_DOT":"0.00005234","MEAN_ELEMENT_THEORY":"SGP4","PERIOD":"95.591","SEMIMAJOR_AXIS":"6925.313","COUNTRY_CODE":"US","DECAY_DATE":null,"CLASSIFICATION_TYPE":"U","PERIAPSIS":"546.233","MEAN_ANOMALY":"284.0906","MEAN_MOTION":"15.06411629","REF_FRAME":"TEME","RA_OF_ASC_NODE":"335.4877","TLE_LINE1":"1 48296U 21036W   22109.85947643  .00005234  00000-0  36990-3 0  9995","OBJECT_TYPE":"PAYLOAD","OBJECT_NAME":"STARLINK-2546","ARG_OF_PERICENTER":"76.0234","EPOCH":"2022-04-19T20:37:38.763552","BSTAR":"0.00036990000000","TIME_SYSTEM":"UTC","APOAPSIS":"548.123","CENTER_NAME":"EARTH","OBJECT_ID":"2021-036W"},{"MEAN_MOTION_DDOT":"0.0000000000000","LAUNCH_DATE":"2021-04-29","PERIOD":"95.592","MEAN_ELEMENT_THEORY":"SGP4","MEAN_MOTION_DOT":"0.00002358","FILE":"3408368","SITE":"AFETR","EPHEMERIS_TYPE":"0","RCS_SIZE":"LARGE","TLE_LINE2":"2 48297  53.0557 337.8825 0001892  51.9052 308.2107 15.06405846 54239","NORAD_CAT_ID":"48297","ELEMENT_SET_NO":"999","ECCENTRICITY":"0.00018920","REV_AT_EPOCH":"5423","GP_ID":"201628190","INCLINATION":"53.0557","ARG_OF_PERICENTER":"51.9052","OBJECT_NAME":"STARLINK-2544","TLE_LINE1":"1 48297U 21036X   22109.32502211  .00002358  00000-0  17712-3 0  9991","OBJECT_TYPE":"PAYLOAD","RA_OF_ASC_NODE":"337.8825","REF_FRAME":"TEME","OBJECT_ID":"2021-036X","CENTER_NAME":"EARTH","TIME_SYSTEM":"UTC","APOAPSIS":"548.506","BSTAR":"0.00017712000000","EPOCH":"2022-04-19T07:48:01.910304","CLASSIFICATION_TYPE":"U","DECAY_DATE":null,"COUNTRY_CODE":"US","SEMIMAJOR_AXIS":"6925.331","MEAN_MOTION":"15.06405846","MEAN_ANOMALY":"308.2107","PERIAPSIS":"545.885"},{"MEAN_MOTION_DOT":"0.00005958","PERIOD":"95.591","MEAN_ELEMENT_THEORY":"SGP4","MEAN_MOTION_DDOT":"0.0000000000000","LAUNCH_DATE":"2021-04-29","GP_ID":"201631857","INCLINATION":"53.0549","REV_AT_EPOCH":"5489","TLE_LINE2":"2 48298  53.0549 335.5209 0001572  65.6061 294.5092 15.06422866 54892","ELEMENT_SET_NO":"999","NORAD_CAT_ID":"48298","ECCENTRICITY":"0.00015720","SITE":"AFETR","FILE":"3408417","EPHEMERIS_TYPE":"0","RCS_SIZE":"LARGE","BSTAR":"0.00041829000000","EPOCH":"2022-04-19T20:27:02.615040","OBJECT_ID":"2021-036Y","CENTER_NAME":"EARTH","APOAPSIS":"548.232","TIME_SYSTEM":"UTC","OBJECT_NAME":"STARLINK-2559","RA_OF_ASC_NODE":"335.5209","TLE_LINE1":"1 48298U 21036Y   22109.85211360  .00005958  00000-0  41829-3 0  9997","OBJECT_TYPE":"PAYLOAD","REF_FRAME":"TEME","ARG_OF_PERICENTER":"65.6061","PERIAPSIS":"546.055","MEAN_MOTION":"15.06422866","MEAN_ANOMALY":"294.5092","DECAY_DATE":null,"COUNTRY_CODE":"US","SEMIMAJOR_AXIS":"6925.278","CLASSIFICATION_TYPE":"U"}];
